[{"OBJECT_NAME":"STARLINK-4574","OBJECT_ID":"2022-107AK","EPOCH":"2026-03-09T17:04:32.963232","MEAN_MOTION":15.08842757,"ECCENTRICITY":0.00013314,"INCLINATION":53.2165,"RA_OF_ASC_NODE":254.253,"ARG_OF_PERICENTER":83.4785,"MEAN_ANOMALY":276.6359,"EPHEMERIS_TYPE":0,"CLASSIFICATION_TYPE":"U","NORAD_CAT_ID":53733,"ELEMENT_SET_NO":999,"REV_AT_EPOCH":19458,"BSTAR":4.82419e-5,"MEAN_MOTION_DOT":4.8e-6,"MEAN_MOTION_DDOT":0},{"OBJECT_NAME":"CZ-4B DEB","OBJECT_ID":"2004-035N","EPOCH":"2026-03-08T07:19:22.074240","MEAN_MOTION":15.17712882,"ECCENTRICITY":0.00700404,"INCLINATION":97.867,"RA_OF_ASC_NODE":11.9774,"ARG_OF_PERICENTER":119.6038,"MEAN_ANOMALY":241.2197,"EPHEMERIS_TYPE":0,"CLASSIFICATION_TYPE":"U","NORAD_CAT_ID":35270,"ELEMENT_SET_NO":999,"REV_AT_EPOCH":13623,"BSTAR":0.0033008842,"MEAN_MOTION_DOT":0.00071474,"MEAN_MOTION_DDOT":0}]
